[{"OBJECT_NAME":"SL-8 R/B","OBJECT_ID":"1979-089B","EPOCH":"2026-03-24T22:26:38.807232","MEAN_MOTION":14.42358915,"ECCENTRICITY":0.00168515,"INCLINATION":74.0678,"RA_OF_ASC_NODE":62.8191,"ARG_OF_PERICENTER":233.6311,"MEAN_ANOMALY":126.3291,"EPHEMERIS_TYPE":0,"CLASSIFICATION_TYPE":"U","NORAD_CAT_ID":11574,"ELEMENT_SET_NO":999,"REV_AT_EPOCH":43830,"BSTAR":7.2260091e-5,"MEAN_MOTION_DOT":2.13e-6,"MEAN_MOTION_DDOT":0},{"OBJECT_NAME":"SL-14 R/B","OBJECT_ID":"1980-005B","EPOCH":"2026-03-24T19:52:39.329472","MEAN_MOTION":14.90946475,"ECCENTRICITY":0.00171663,"INCLINATION":82.5117,"RA_OF_ASC_NODE":292.8736,"ARG_OF_PERICENTER":111.0324,"MEAN_ANOMALY":249.2734,"EPHEMERIS_TYPE":0,"CLASSIFICATION_TYPE":"U","NORAD_CAT_ID":11672,"ELEMENT_SET_NO":999,"REV_AT_EPOCH":47874,"BSTAR":5.2610094e-5,"MEAN_MOTION_DOT":5.46e-6,"MEAN_MOTION_DDOT":0},{"OBJECT_NAME":"SL-8 R/B","OBJECT_ID":"1981-003B","EPOCH":"2026-03-24T23:09:15.170688","MEAN_MOTION":15.11623563,"ECCENTRICITY":0.02612212,"INCLINATION":82.9353,"RA_OF_ASC_NODE":275.892,"ARG_OF_PERICENTER":125.4395,"MEAN_ANOMALY":237.1532,"EPHEMERIS_TYPE":0,"CLASSIFICATION_TYPE":"U","NORAD_CAT_ID":12139,"ELEMENT_SET_NO":999,"REV_AT_EPOCH":31698,"BSTAR":0.00048819797,"MEAN_MOTION_DOT":0.00019405,"MEAN_MOTION_DDOT":0},{"OBJECT_NAME":"SL-3 R/B","OBJECT_ID":"1981-046B","EPOCH":"2026-03-24T23:12:49.182624","MEAN_MOTION":15.4236128,"ECCENTRICITY":0.00183956,"INCLINATION":81.2287,"RA_OF_ASC_NODE":271.39,"ARG_OF_PERICENTER":328.4732,"MEAN_ANOMALY":31.5407,"EPHEMERIS_TYPE":0,"CLASSIFICATION_TYPE":"U","NORAD_CAT_ID":12465,"ELEMENT_SET_NO":999,"REV_AT_EPOCH":44078,"BSTAR":0.00023413817,"MEAN_MOTION_DOT":0.00010192,"MEAN_MOTION_DDOT":0},{"OBJECT_NAME":"SL-3 R/B","OBJECT_ID":"1981-103B","EPOCH":"2026-03-24T21:33:57.081312","MEAN_MOTION":15.21554812,"ECCENTRICITY":0.00126648,"INCLINATION":81.1607,"RA_OF_ASC_NODE":195.5914,"ARG_OF_PERICENTER":232.0394,"MEAN_ANOMALY":127.9694,"EPHEMERIS_TYPE":0,"CLASSIFICATION_TYPE":"U","NORAD_CAT_ID":12904,"ELEMENT_SET_NO":999,"REV_AT_EPOCH":97554,"BSTAR":0.00021464863,"MEAN_MOTION_DOT":4.871e-5,"MEAN_MOTION_DDOT":0},{"OBJECT_NAME":"SL-3 R/B","OBJECT_ID":"1982-013B","EPOCH":"2026-03-24T21:36:42.464736","MEAN_MOTION":15.22153002,"ECCENTRICITY":0.0023421,"INCLINATION":81.1741,"RA_OF_ASC_NODE":142.9426,"ARG_OF_PERICENTER":127.3132,"MEAN_ANOMALY":233.0239,"EPHEMERIS_TYPE":0,"CLASSIFICATION_TYPE":"U","NORAD_CAT_ID":13068,"ELEMENT_SET_NO":999,"REV_AT_EPOCH":40666,"BSTAR":0.00017977055,"MEAN_MOTION_DOT":4.179e-5,"MEAN_MOTION_DDOT":0},{"OBJECT_NAME":"SL-3 R/B","OBJECT_ID":"1982-039B","EPOCH":"2026-03-24T21:31:07.052160","MEAN_MOTION":15.10163492,"ECCENTRICITY":0.00288861,"INCLINATION":81.1573,"RA_OF_ASC_NODE":198.4281,"ARG_OF_PERICENTER":274.3455,"MEAN_ANOMALY":85.447,"EPHEMERIS_TYPE":0,"CLASSIFICATION_TYPE":"U","NORAD_CAT_ID":13154,"ELEMENT_SET_NO":999,"REV_AT_EPOCH":38393,"BSTAR":0.00015724359,"MEAN_MOTION_DOT":2.613e-5,"MEAN_MOTION_DDOT":0},{"OBJECT_NAME":"SL-3 R/B","OBJECT_ID":"1982-079B","EPOCH":"2026-03-24T22:56:34.881792","MEAN_MOTION":15.25004056,"ECCENTRICITY":0.00255104,"INCLINATION":81.1482,"RA_OF_ASC_NODE":175.0525,"ARG_OF_PERICENTER":114.4815,"MEAN_ANOMALY":245.9083,"EPHEMERIS_TYPE":0,"CLASSIFICATION_TYPE":"U","NORAD_CAT_ID":13403,"ELEMENT_SET_NO":999,"REV_AT_EPOCH":38002,"BSTAR":0.00019725338,"MEAN_MOTION_DOT":4.994e-5,"MEAN_MOTION_DDOT":0},{"OBJECT_NAME":"SL-14 R/B","OBJECT_ID":"1982-092B","EPOCH":"2026-03-24T21:00:47.227104","MEAN_MOTION":14.86679594,"ECCENTRICITY":0.00188531,"INCLINATION":82.5665,"RA_OF_ASC_NODE":127.194,"ARG_OF_PERICENTER":249.1877,"MEAN_ANOMALY":283.5066,"EPHEMERIS_TYPE":0,"CLASSIFICATION_TYPE":"U","NORAD_CAT_ID":13553,"ELEMENT_SET_NO":999,"REV_AT_EPOCH":33118,"BSTAR":4.4029918e-5,"MEAN_MOTION_DOT":4.17e-6,"MEAN_MOTION_DDOT":0},{"OBJECT_NAME":"SL-3 R/B","OBJECT_ID":"1983-010B","EPOCH":"2026-03-24T23:09:26.277408","MEAN_MOTION":15.46869287,"ECCENTRICITY":0.00164225,"INCLINATION":81.105,"RA_OF_ASC_NODE":343.5149,"ARG_OF_PERICENTER":359.7697,"MEAN_ANOMALY":0.3537,"EPHEMERIS_TYPE":0,"CLASSIFICATION_TYPE":"U","NORAD_CAT_ID":13819,"ELEMENT_SET_NO":999,"REV_AT_EPOCH":36030,"BSTAR":0.00026350591,"MEAN_MOTION_DOT":0.00013346,"MEAN_MOTION_DDOT":0},{"OBJECT_NAME":"SL-3 R/B","OBJECT_ID":"1983-075B","EPOCH":"2026-03-24T23:17:45.063744","MEAN_MOTION":15.3876957,"ECCENTRICITY":0.0021795,"INCLINATION":97.6148,"RA_OF_ASC_NODE":89.131,"ARG_OF_PERICENTER":169.7979,"MEAN_ANOMALY":190.3712,"EPHEMERIS_TYPE":0,"CLASSIFICATION_TYPE":"U","NORAD_CAT_ID":14208,"ELEMENT_SET_NO":999,"REV_AT_EPOCH":33250,"BSTAR":0.00026660751,"MEAN_MOTION_DOT":0.00010213,"MEAN_MOTION_DDOT":0},{"OBJECT_NAME":"COSMOS 1536","OBJECT_ID":"1984-013A","EPOCH":"2026-03-24T19:43:58.245888","MEAN_MOTION":15.24024346,"ECCENTRICITY":0.0012972,"INCLINATION":82.5421,"RA_OF_ASC_NODE":92.8018,"ARG_OF_PERICENTER":223.2954,"MEAN_ANOMALY":136.7265,"EPHEMERIS_TYPE":0,"CLASSIFICATION_TYPE":"U","NORAD_CAT_ID":14699,"ELEMENT_SET_NO":999,"REV_AT_EPOCH":27492,"BSTAR":0.00026329287,"MEAN_MOTION_DOT":6.426e-5,"MEAN_MOTION_DDOT":0},{"OBJECT_NAME":"SL-14 R/B","OBJECT_ID":"1984-027B","EPOCH":"2026-03-24T21:52:18.092064","MEAN_MOTION":14.8599153,"ECCENTRICITY":0.00165127,"INCLINATION":82.5407,"RA_OF_ASC_NODE":230.7346,"ARG_OF_PERICENTER":284.2558,"MEAN_ANOMALY":75.6824,"EPHEMERIS_TYPE":0,"CLASSIFICATION_TYPE":"U","NORAD_CAT_ID":14820,"ELEMENT_SET_NO":999,"REV_AT_EPOCH":24989,"BSTAR":5.4941209e-5,"MEAN_MOTION_DOT":5.05e-6,"MEAN_MOTION_DDOT":0},{"OBJECT_NAME":"SL-8 R/B","OBJECT_ID":"1985-006B","EPOCH":"2026-03-24T21:45:53.446176","MEAN_MOTION":14.37793939,"ECCENTRICITY":0.00178297,"INCLINATION":74.0444,"RA_OF_ASC_NODE":233.1449,"ARG_OF_PERICENTER":146.6776,"MEAN_ANOMALY":331.5463,"EPHEMERIS_TYPE":0,"CLASSIFICATION_TYPE":"U","NORAD_CAT_ID":15483,"ELEMENT_SET_NO":999,"REV_AT_EPOCH":15621,"BSTAR":0.00011551393,"MEAN_MOTION_DOT":3.22e-6,"MEAN_MOTION_DDOT":0},{"OBJECT_NAME":"SL-12 R/B(2)","OBJECT_ID":"1985-042D","EPOCH":"2026-03-24T23:00:50.328576","MEAN_MOTION":14.21986597,"ECCENTRICITY":0.00328518,"INCLINATION":71.1077,"RA_OF_ASC_NODE":55.4662,"ARG_OF_PERICENTER":102.8296,"MEAN_ANOMALY":316.9395,"EPHEMERIS_TYPE":0,"CLASSIFICATION_TYPE":"U","NORAD_CAT_ID":15772,"ELEMENT_SET_NO":999,"REV_AT_EPOCH":11656,"BSTAR":9.2899474e-5,"MEAN_MOTION_DOT":1.59e-6,"MEAN_MOTION_DDOT":0},{"OBJECT_NAME":"SL-14 R/B","OBJECT_ID":"1985-069B","EPOCH":"2026-03-24T21:23:43.514304","MEAN_MOTION":14.8644921,"ECCENTRICITY":0.0019785,"INCLINATION":82.5304,"RA_OF_ASC_NODE":10.642,"ARG_OF_PERICENTER":138.3804,"MEAN_ANOMALY":221.8923,"EPHEMERIS_TYPE":0,"CLASSIFICATION_TYPE":"U","NORAD_CAT_ID":15945,"ELEMENT_SET_NO":999,"REV_AT_EPOCH":17509,"BSTAR":5.5134425e-5,"MEAN_MOTION_DOT":5.13e-6,"MEAN_MOTION_DDOT":0},{"OBJECT_NAME":"SL-16 R/B","OBJECT_ID":"1985-097B","EPOCH":"2026-03-24T20:05:30.230016","MEAN_MOTION":14.16602925,"ECCENTRICITY":0.00095231,"INCLINATION":71.001,"RA_OF_ASC_NODE":108.6635,"ARG_OF_PERICENTER":241.9352,"MEAN_ANOMALY":290.7538,"EPHEMERIS_TYPE":0,"CLASSIFICATION_TYPE":"U","NORAD_CAT_ID":16182,"ELEMENT_SET_NO":999,"REV_AT_EPOCH":8937,"BSTAR":9.0130173e-5,"MEAN_MOTION_DOT":1.32e-6,"MEAN_MOTION_DDOT":0}]
